ONEWEB-0228             
1 48780U 21045P   24262.79862505  .00000173  00000+0  42559-3 0  9995
2 48780  87.9093  25.8197 0001768 103.9754 256.1573 13.15550409160658
